{"type": "FeatureCollection", "features": [{"type": "Feature", "properties": {"norad_id": 24876, "name": "GPS BIIR-2  (PRN 13)", "group": "gps-ops", "lat": -47.37270151829664, "lon": 58.717953346522066, "alt_km": 20312.621851982243, "timestamp": "2025-12-07T03:52:32.755015+00:00", "meta": {"OBJECT_NAME": "GPS BIIR-2  (PRN 13)", "OBJECT_ID": "1997-035A", "EPOCH": "2025-12-05T18:03:38.663712", "MEAN_MOTION": 2.00563458, "ECCENTRICITY": 0.00967066, "INCLINATION": 55.8919, "RA_OF_ASC_NODE": 106.1422, "ARG_OF_PERICENTER": 57.0175, "MEAN_ANOMALY": 303.8711, "EPHEMERIS_TYPE": 0, "CLASSIFICATION_TYPE": "U", "NORAD_CAT_ID": 24876, "ELEMENT_SET_NO": 999, "REV_AT_EPOCH": 20807, "BSTAR": 0, "MEAN_MOTION_DOT": 4e-08, "MEAN_MOTION_DDOT": 0}, "tle": {"line1": "1 24876U 97035A   25339.75253083  .00000004  00000+0  00000+0 0  9998", "line2": "2 24876  55.8919 106.1422 0096706  57.0175 303.8711  2.00563458208078"}}, "geometry": {"type": "Point", "coordinates": [58.717953346522066, -47.37270151829664]}}, {"type": "Feature", "properties": {"norad_id": 26360, "name": "GPS BIIR-4  (PRN 20)", "group": "gps-ops", "lat": 24.39758819470245, "lon": 45.57040685905368, "alt_km": 20267.2849763183, "timestamp": "2025-12-07T03:52:32.755043+00:00", "meta": {"OBJECT_NAME": "GPS BIIR-4  (PRN 20)", "OBJECT_ID": "2000-025A", "EPOCH": "2025-12-06T06:26:54.384864", "MEAN_MOTION": 2.00568091, "ECCENTRICITY": 0.00388254, "INCLINATION": 55.0413, "RA_OF_ASC_NODE": 27.0997, "ARG_OF_PERICENTER": 241.3684, "MEAN_ANOMALY": 224.0568, "EPHEMERIS_TYPE": 0, "CLASSIFICATION_TYPE": "U", "NORAD_CAT_ID": 26360, "ELEMENT_SET_NO": 999, "REV_AT_EPOCH": 18740, "BSTAR": 0, "MEAN_MOTION_DOT": -7.8e-07, "MEAN_MOTION_DDOT": 0}, "tle": {"line1": "1 26360U 00025A   25340.26868501 -.00000078  00000+0  00000+0 0  9998", "line2": "2 26360  55.0413  27.0997 0038825 241.3684 224.0568  2.00568091187403"}}, "geometry": {"type": "Point", "coordinates": [45.57040685905368, 24.39758819470245]}}, {"type": "Feature", "properties": {"norad_id": 26407, "name": "GPS BIIR-5  (PRN 22)", "group": "gps-ops", "lat": -37.611598740824675, "lon": 75.58768200975331, "alt_km": 20087.57225819219, "timestamp": "2025-12-07T03:52:32.755060+00:00", "meta": {"OBJECT_NAME": "GPS BIIR-5  (PRN 22)", "OBJECT_ID": "2000-040A", "EPOCH": "2025-12-06T02:15:28.524096", "MEAN_MOTION": 2.00567762, "ECCENTRICITY": 0.01263695, "INCLINATION": 54.8924, "RA_OF_ASC_NODE": 222.8334, "ARG_OF_PERICENTER": 301.6877, "MEAN_ANOMALY": 237.2417, "EPHEMERIS_TYPE": 0, "CLASSIFICATION_TYPE": "U", "NORAD_CAT_ID": 26407, "ELEMENT_SET_NO": 999, "REV_AT_EPOCH": 18607, "BSTAR": 0, "MEAN_MOTION_DOT": 4.6e-07, "MEAN_MOTION_DDOT": 0}, "tle": {"line1": "1 26407U 00040A   25340.09408014  .00000046  00000+0  00000+0 0  9991", "line2": "2 26407  54.8924 222.8334 0126369 301.6877 237.2417  2.00567762186079"}}, "geometry": {"type": "Point", "coordinates": [75.58768200975331, -37.611598740824675]}}, {"type": "Feature", "properties": {"norad_id": 27663, "name": "GPS BIIR-8  (PRN 16)", "group": "gps-ops", "lat": 3.4104097326089615, "lon": -134.99283013933152, "alt_km": 19913.885136592016, "timestamp": "2025-12-07T03:52:32.755076+00:00", "meta": {"OBJECT_NAME": "GPS BIIR-8  (PRN 16)", "OBJECT_ID": "2003-005A", "EPOCH": "2025-12-06T16:05:33.383328", "MEAN_MOTION": 2.00571142, "ECCENTRICITY": 0.01472147, "INCLINATION": 54.9248, "RA_OF_ASC_NODE": 222.6198, "ARG_OF_PERICENTER": 51.718, "MEAN_ANOMALY": 319.2598, "EPHEMERIS_TYPE": 0, "CLASSIFICATION_TYPE": "U", "NORAD_CAT_ID": 27663, "ELEMENT_SET_NO": 999, "REV_AT_EPOCH": 16745, "BSTAR": 0, "MEAN_MOTION_DOT": 3.9e-07, "MEAN_MOTION_DDOT": 0}, "tle": {"line1": "1 27663U 03005A   25340.67052527  .00000039  00000+0  00000+0 0  9990", "line2": "2 27663  54.9248 222.6198 0147214  51.7180 319.2598  2.00571142167451"}}, "geometry": {"type": "Point", "coordinates": [-134.99283013933152, 3.4104097326089615]}}, {"type": "Feature", "properties": {"norad_id": 28190, "name": "GPS BIIR-11 (PRN 19)", "group": "gps-ops", "lat": 12.70849857772806, "lon": 94.34166252463172, "alt_km": 19893.628316249862, "timestamp": "2025-12-07T03:52:32.755089+00:00", "meta": {"OBJECT_NAME": "GPS BIIR-11 (PRN 19)", "OBJECT_ID": "2004-009A", "EPOCH": "2025-12-06T01:17:13.122240", "MEAN_MOTION": 2.0056089, "ECCENTRICITY": 0.01082534, "INCLINATION": 54.9918, "RA_OF_ASC_NODE": 283.4884, "ARG_OF_PERICENTER": 167.5282, "MEAN_ANOMALY": 276.9875, "EPHEMERIS_TYPE": 0, "CLASSIFICATION_TYPE": "U", "NORAD_CAT_ID": 28190, "ELEMENT_SET_NO": 999, "REV_AT_EPOCH": 15907, "BSTAR": 0, "MEAN_MOTION_DOT": -3.9e-07, "MEAN_MOTION_DDOT": 0}, "tle": {"line1": "1 28190U 04009A   25340.05362410 -.00000039  00000+0  00000+0 0  9999", "line2": "2 28190  54.9918 283.4884 0108253 167.5282 276.9875  2.00560890159071"}}, "geometry": {"type": "Point", "coordinates": [94.34166252463172, 12.70849857772806]}}, {"type": "Feature", "properties": {"norad_id": 28474, "name": "GPS BIIR-13 (PRN 02)", "group": "gps-ops", "lat": -33.69226827187634, "lon": -179.80547727557015, "alt_km": 20149.759864087686, "timestamp": "2025-12-07T03:52:32.755102+00:00", "meta": {"OBJECT_NAME": "GPS BIIR-13 (PRN 02)", "OBJECT_ID": "2004-045A", "EPOCH": "2025-12-05T20:20:11.876352", "MEAN_MOTION": 2.0056901, "ECCENTRICITY": 0.01706228, "INCLINATION": 55.2441, "RA_OF_ASC_NODE": 332.6831, "ARG_OF_PERICENTER": 308.9503, "MEAN_ANOMALY": 46.5475, "EPHEMERIS_TYPE": 0, "CLASSIFICATION_TYPE": "U", "NORAD_CAT_ID": 28474, "ELEMENT_SET_NO": 999, "REV_AT_EPOCH": 15454, "BSTAR": 0, "MEAN_MOTION_DOT": -7.7e-07, "MEAN_MOTION_DDOT": 0}, "tle": {"line1": "1 28474U 04045A   25339.84735968 -.00000077  00000+0  00000+0 0  9993", "line2": "2 28474  55.2441 332.6831 0170622 308.9503  46.5475  2.00569010154543"}}, "geometry": {"type": "Point", "coordinates": [-179.80547727557015, -33.69226827187634]}}, {"type": "Feature", "properties": {"norad_id": 28874, "name": "GPS BIIRM-1 (PRN 17)", "group": "gps-ops", "lat": -1.4557952746076457, "lon": 101.92448511896612, "alt_km": 20304.281672988178, "timestamp": "2025-12-07T03:52:32.755114+00:00", "meta": {"OBJECT_NAME": "GPS BIIRM-1 (PRN 17)", "OBJECT_ID": "2005-038A", "EPOCH": "2025-12-06T00:39:47.683008", "MEAN_MOTION": 2.00593123, "ECCENTRICITY": 0.01317527, "INCLINATION": 55.0379, "RA_OF_ASC_NODE": 280.9712, "ARG_OF_PERICENTER": 293.1135, "MEAN_ANOMALY": 151.2056, "EPHEMERIS_TYPE": 0, "CLASSIFICATION_TYPE": "U", "NORAD_CAT_ID": 28874, "ELEMENT_SET_NO": 999, "REV_AT_EPOCH": 14796, "BSTAR": 0, "MEAN_MOTION_DOT": -3.6e-07, "MEAN_MOTION_DDOT": 0}, "tle": {"line1": "1 28874U 05038A   25340.02763522 -.00000036  00000+0  00000+0 0  9994", "line2": "2 28874  55.0379 280.9712 0131752 293.1135 151.2056  2.00593123147964"}}, "geometry": {"type": "Point", "coordinates": [101.92448511896612, -1.4557952746076457]}}, {"type": "Feature", "properties": {"norad_id": 29486, "name": "GPS BIIRM-2 (PRN 31)", "group": "gps-ops", "lat": 54.57875142053559, "lon": -115.52934550351127, "alt_km": 19943.64419068925, "timestamp": "2025-12-07T03:52:32.755126+00:00", "meta": {"OBJECT_NAME": "GPS BIIRM-2 (PRN 31)", "OBJECT_ID": "2006-042A", "EPOCH": "2025-12-05T13:29:33.507168", "MEAN_MOTION": 2.00554326, "ECCENTRICITY": 0.01073593, "INCLINATION": 54.693, "RA_OF_ASC_NODE": 159.0256, "ARG_OF_PERICENTER": 51.7863, "MEAN_ANOMALY": 320.1689, "EPHEMERIS_TYPE": 0, "CLASSIFICATION_TYPE": "U", "NORAD_CAT_ID": 29486, "ELEMENT_SET_NO": 999, "REV_AT_EPOCH": 14051, "BSTAR": 0, "MEAN_MOTION_DOT": 7.3e-07, "MEAN_MOTION_DDOT": 0}, "tle": {"line1": "1 29486U 06042A   25339.56219337  .00000073  00000+0  00000+0 0  9997", "line2": "2 29486  54.6930 159.0256 0107359  51.7863 320.1689  2.00554326140518"}}, "geometry": {"type": "Point", "coordinates": [-115.52934550351127, 54.57875142053559]}}, {"type": "Feature", "properties": {"norad_id": 29601, "name": "GPS BIIRM-3 (PRN 12)", "group": "gps-ops", "lat": 28.197408609828088, "lon": 19.55817065212317, "alt_km": 20051.1819194019, "timestamp": "2025-12-07T03:52:32.755138+00:00", "meta": {"OBJECT_NAME": "GPS BIIRM-3 (PRN 12)", "OBJECT_ID": "2006-052A", "EPOCH": "2025-12-05T23:11:48.178176", "MEAN_MOTION": 2.00572974, "ECCENTRICITY": 0.00876305, "INCLINATION": 54.9719, "RA_OF_ASC_NODE": 221.6671, "ARG_OF_PERICENTER": 87.3693, "MEAN_ANOMALY": 273.7261, "EPHEMERIS_TYPE": 0, "CLASSIFICATION_TYPE": "U", "NORAD_CAT_ID": 29601, "ELEMENT_SET_NO": 999, "REV_AT_EPOCH": 13953, "BSTAR": 0, "MEAN_MOTION_DOT": 4.9e-07, "MEAN_MOTION_DDOT": 0}, "tle": {"line1": "1 29601U 06052A   25339.96652984  .00000049  00000+0  00000+0 0  9993", "line2": "2 29601  54.9719 221.6671 0087630  87.3693 273.7261  2.00572974139535"}}, "geometry": {"type": "Point", "coordinates": [19.55817065212317, 28.197408609828088]}}, {"type": "Feature", "properties": {"norad_id": 32260, "name": "GPS BIIRM-4 (PRN 15)", "group": "gps-ops", "lat": -51.836797639775696, "lon": 20.236341712185556, "alt_km": 20600.574404117684, "timestamp": "2025-12-07T03:52:32.755150+00:00", "meta": {"OBJECT_NAME": "GPS BIIRM-4 (PRN 15)", "OBJECT_ID": "2007-047A", "EPOCH": "2025-12-06T06:31:43.189824", "MEAN_MOTION": 2.0056467, "ECCENTRICITY": 0.01643332, "INCLINATION": 53.9509, "RA_OF_ASC_NODE": 88.0257, "ARG_OF_PERICENTER": 85.1745, "MEAN_ANOMALY": 276.6803, "EPHEMERIS_TYPE": 0, "CLASSIFICATION_TYPE": "U", "NORAD_CAT_ID": 32260, "ELEMENT_SET_NO": 999, "REV_AT_EPOCH": 13294, "BSTAR": 0, "MEAN_MOTION_DOT": -2.3e-07, "MEAN_MOTION_DDOT": 0}, "tle": {"line1": "1 32260U 07047A   25340.27202766 -.00000023  00000+0  00000+0 0  9991", "line2": "2 32260  53.9509  88.0257 0164333  85.1745 276.6803  2.00564670132947"}}, "geometry": {"type": "Point", "coordinates": [20.236341712185556, -51.836797639775696]}}]}